NAVSTAR 77 (USA 289)    
1 43873U 18109A   24011.76644797  .00000014  00000+0  00000+0 0  9995
2 43873  55.2386 127.2504 0028437 192.0053 332.9208  2.00572603 37272
